H1 CPF  1  DLR 2021 05 29 10  6492 technosat            
H2  1704205 6203    42829 2021 05 29 00 00 00 2021 06 05 00 00 00    60 1 1  0 0 0
H9
10 0 59368  36000.000000  0       1911924.995        323825.648      -6705735.062
10 0 59368  36060.000000  0       2322830.612        168155.760      -6581169.684
10 0 59368  36120.000000  0       2722651.966          8236.409      -6428910.839
10 0 59368  36180.000000  0       3109684.720       -155159.914      -6249598.652
10 0 59368  36240.000000  0       3482284.154       -321231.493      -6043985.768
10 0 59368  36300.000000  0       3838872.035       -489151.168      -5812934.409
10 0 59368  36360.000000  0       4177943.262       -658070.270      -5557413.062
10 0 59368  36420.000000  0       4498072.312       -827122.785      -5278492.745
10 0 59368  36480.000000  0       4797919.350       -995429.663      -4977342.758
10 0 59368  36540.000000  0       5076235.956      -1162103.214      -4655226.020
10 0 59368  36600.000000  0       5331870.472      -1326251.609      -4313494.020
10 0 59368  36660.000000  0       5563772.954      -1486983.469      -3953581.383
10 0 59368  36720.000000  0       5770999.714      -1643412.513      -3577000.052
10 0 59368  36780.000000  0       5952717.380      -1794662.247      -3185333.097
10 0 59368  36840.000000  0       6108206.502      -1939870.665      -2780228.203
10 0 59368  36900.000000  0       6236864.638      -2078194.950      -2363390.822
10 0 59368  36960.000000  0       6338208.895      -2208816.103      -1936577.024
10 0 59368  37020.000000  0       6411877.935      -2330943.509      -1501586.142
10 0 59368  37080.000000  0       6457633.444      -2443819.393      -1060253.171
10 0 59368  37140.000000  0       6475361.032      -2546723.173       -614440.975
10 0 59368  37200.000000  0       6465070.537      -2638975.672       -166032.324
10 0 59368  37260.000000  0       6426895.734      -2719943.127        283078.165
10 0 59368  37320.000000  0       6361093.506      -2789040.983        730992.159
10 0 59368  37380.000000  0       6268042.424      -2845737.486       1175815.813
10 0 59368  37440.000000  0       6148240.690      -2889557.026       1615667.993
10 0 59368  37500.000000  0       6002303.448      -2920083.191       2048688.378
10 0 59368  37560.000000  0       5830959.659      -2936961.553       2473045.388
10 0 59368  37620.000000  0       5635048.464      -2939902.164       2886944.122
10 0 59368  37680.000000  0       5415514.907      -2928681.647       3288634.086
10 0 59368  37740.000000  0       5173405.217      -2903144.974       3676416.586
10 0 59368  37800.000000  0       4909861.739      -2863206.931       4048651.885
10 0 59368  37860.000000  0       4626117.471      -2808853.250       4403766.125
10 0 59368  37920.000000  0       4323490.211      -2740141.423       4740258.016
10 0 59368  37980.000000  0       4003376.245      -2657201.155       5056705.213
10 0 59368  38040.000000  0       3667243.679      -2560234.402       5351770.230
10 0 59368  38100.000000  0       3316625.561      -2449515.042       5624205.932
10 0 59368  38160.000000  0       2953112.810      -2325388.201       5872860.655
10 0 59368  38220.000000  0       2578346.930      -2188269.268       6096682.945
10 0 59368  38280.000000  0       2194012.516      -2038642.544       6294725.858
10 0 59368  38340.000000  0       1801829.657      -1877059.569       6466150.796
10 0 59368  38400.000000  0       1403546.233      -1704137.119       6610230.973
10 0 59368  38460.000000  0       1000930.071      -1520554.862       6726354.353
10 0 59368  38520.000000  0        595761.144      -1327052.702       6814026.127
10 0 59368  38580.000000  0        189823.752      -1124427.820       6872870.772
10 0 59368  38640.000000  0       -215101.302       -913531.401       6902633.596
10 0 59368  38700.000000  0       -617244.425       -695265.135       6903181.822
10 0 59368  38760.000000  0      -1014854.926       -470577.417       6874505.283
10 0 59368  38820.000000  0      -1406208.611       -240459.264       6816716.574
10 0 59368  38880.000000  0      -1789615.228         -5940.003       6730050.734
10 0 59368  38940.000000  0      -2163425.758        231917.280       6614864.499
10 0 59368  39000.000000  0      -2526039.566        472020.512       6471635.030
10 0 59368  39060.000000  0      -2875911.317        713253.593       6300958.170
10 0 59368  39120.000000  0      -3211557.670        954481.531       6103546.243
10 0 59368  39180.000000  0      -3531563.747       1194555.758       5880225.371
10 0 59368  39240.000000  0      -3834589.317       1432319.571       5631932.278
10 0 59368  39300.000000  0      -4119374.661       1666613.706       5359710.641
10 0 59368  39360.000000  0      -4384746.124       1896282.011       5064706.926
10 0 59368  39420.000000  0      -4629621.259       2120177.197       4748165.734
10 0 59368  39480.000000  0      -4853013.536       2337166.624       4411424.677
10 0 59368  39540.000000  0      -5054036.608       2546138.071       4055908.844
10 0 59368  39600.000000  0      -5231908.152       2746005.468       3683124.844
10 0 59368  39660.000000  0      -5385953.199       2935714.578       3294654.449
10 0 59368  39720.000000  0      -5515606.980       3114248.598       2892147.887
10 0 59368  39780.000000  0      -5620417.275       3280633.636       2477316.773
10 0 59368  39840.000000  0      -5700046.249       3433944.068       2051926.704
10 0 59368  39900.000000  0      -5754271.673       3573307.704       1617789.491
10 0 59368  39960.000000  0      -5782987.548       3697910.648       1176755.137
10 0 59368  40020.000000  0      -5786204.098       3807001.885        730703.637
10 0 59368  40080.000000  0      -5764047.243       3899897.613        281536.739
10 0 59368  40140.000000  0      -5716757.548       3975985.256       -168830.555
10 0 59368  40200.000000  0      -5644688.493       4034727.080       -618478.501
10 0 59368  40260.000000  0      -5548304.277       4075663.534      -1065491.118
10 0 59368  40320.000000  0      -5428177.030       4098416.159      -1507964.815
10 0 59368  40380.000000  0      -5284983.402       4102690.014      -1944016.883
10 0 59368  40440.000000  0      -5119500.643       4088275.676      -2371793.791
10 0 59368  40500.000000  0      -4932602.253       4055050.834      -2789479.283
10 0 59368  40560.000000  0      -4725253.187       4002981.428      -3195302.323
10 0 59368  40620.000000  0      -4498504.586       3932122.289      -3587544.751
10 0 59368  40680.000000  0      -4253488.181       3842617.358      -3964548.543
10 0 59368  40740.000000  0      -3991410.432       3734699.533      -4324722.814
10 0 59368  40800.000000  0      -3713546.260       3608690.017      -4666550.514
10 0 59368  40860.000000  0      -3421232.556       3464997.195      -4988594.580
10 0 59368  40920.000000  0      -3115861.617       3304115.178      -5289503.728
10 0 59368  40980.000000  0      -2798874.366       3126621.966      -5568017.940
10 0 59368  41040.000000  0      -2471753.366       2933177.194      -5822973.508
10 0 59368  41100.000000  0      -2136015.713       2724519.464      -6053307.612
10 0 59368  41160.000000  0      -1793205.870       2501463.306      -6258062.404
10 0 59368  41220.000000  0      -1444888.486       2264895.790      -6436388.570
10 0 59368  41280.000000  0      -1092641.299       2015772.892      -6587548.443
10 0 59368  41340.000000  0       -738048.043       1755115.572      -6710918.764
10 0 59368  41400.000000  0       -382691.334       1484005.455      -6805992.910
10 0 59368  41460.000000  0        -28145.796       1203580.317      -6872382.570
10 0 59368  41520.000000  0        324028.723        915029.374      -6909819.163
10 0 59368  41580.000000  0        672293.926        619588.287      -6918154.820
10 0 59368  41640.000000  0       1015139.726        318533.885      -6897362.802
10 0 59368  41700.000000  0       1351090.648         13178.695      -6847537.391
10 0 59368  41760.000000  0       1678711.999       -295134.674      -6768893.345
10 0 59368  41820.000000  0       1996615.797       -605039.280      -6661764.980
10 0 59368  41880.000000  0       2303466.532       -915149.787      -6526604.879
10 0 59368  41940.000000  0       2597986.730      -1224068.557      -6363982.032
10 0 59368  42000.000000  0       2878962.131      -1530391.761      -6174579.532
10 0 59368  42060.000000  0       3145246.607      -1832715.576      -5959191.973
10 0 59368  42120.000000  0       3395766.860      -2129642.546      -5718722.458
10 0 59368  42180.000000  0       3629526.865      -2419788.023      -5454179.054
10 0 59368  42240.000000  0       3845611.876      -2701786.603      -5166670.748
10 0 59368  42300.000000  0       4043192.026      -2974298.525      -4857403.001
10 0 59368  42360.000000  0       4221525.545      -3236015.984      -4527672.924
10 0 59368  42420.000000  0       4379961.609      -3485669.357      -4178864.111
10 0 59368  42480.000000  0       4517942.840      -3722033.370      -3812441.107
10 0 59368  42540.000000  0       4635007.401      -3943933.139      -3429943.473
10 0 59368  42600.000000  0       4730790.644      -4150250.065      -3032979.480
10 0 59368  42660.000000  0       4805026.302      -4339927.503      -2623219.436
10 0 59368  42720.000000  0       4857547.216      -4511976.158      -2202388.769
10 0 59368  42780.000000  0       4888285.664      -4665479.313      -1772260.839
10 0 59368  42840.000000  0       4897273.148      -4799597.747      -1334649.403
10 0 59368  42900.000000  0       4884639.693      -4913574.262       -891400.935
10 0 59368  42960.000000  0       4850612.702      -5006737.894       -444386.737
10 0 59368  43020.000000  0       4795515.307      -5078507.686          4505.073
10 0 59368  43080.000000  0       4719764.300      -5128396.068        453377.632
10 0 59368  43140.000000  0       4623867.671      -5156011.842        900333.516
99
